{"type":"FeatureCollection","crs":{"type":"name","properties":{"name":"EPSG:4326"}},"features":[{"type":"Feature","geometry":{"type":"Polygon","coordinates":[[[0.279230477291057,50.9142082079396],[0.279641613874497,50.9141192572982],[0.280423513748273,50.9125372502601],[0.279932560200295,50.911369518644],[0.281854206174034,50.9092688227877],[0.283074293454481,50.9006260494789],[0.283869356749981,50.8993774168262],[0.284538077485968,50.896882887723],[0.286205186289535,50.8945379241696],[0.287928287793218,50.8895376613683],[0.285155748117484,50.8867247257148],[0.279493353152367,50.882956427432],[0.274476770756687,50.8802877910152],[0.27231575170287,50.8805475795495],[0.270417201004417,50.8798343946065],[0.271259276055333,50.8793476693116],[0.268991127179166,50.8783961941746],[0.264835756445869,50.8782781349543],[0.264781398442037,50.8776262414511],[0.264008613956751,50.8776088676018],[0.261112882857285,50.8789313455579],[0.259014449374447,50.879132929551],[0.258108689034123,50.8798637387604],[0.255079577069769,50.8786955397894],[0.253806143891758,50.8787893734895],[0.254082964282952,50.8791941201055],[0.25186956516896,50.8796672355307],[0.25019061251239,50.8790624060867],[0.247694590765422,50.8791874041486],[0.248031625361851,50.8801050309951],[0.248781638765105,50.8803136288433],[0.248319051724197,50.8810402511484],[0.247623217239284,50.8810122823336],[0.246454785805862,50.8807649633765],[0.246567058927682,50.8801732553023],[0.245993964198736,50.880125376071],[0.245822491535323,50.8794865149611],[0.244532485098265,50.8792819887635],[0.244186714860846,50.8787755391019],[0.241527503795704,50.8780686425057],[0.239909206939926,50.8782441546379],[0.239352283714752,50.8779459036617],[0.23937893266046,50.8772951372679],[0.238987272185561,50.8771701726036],[0.238577472384297,50.8776245783283],[0.23812017634696,50.8771890531311],[0.23748814372581,50.8774172943704],[0.236241210098809,50.8767862625016],[0.23548217768563,50.8768322827204],[0.23580625890914,50.8763565958868],[0.235505933531678,50.8761715573137],[0.234791895323274,50.8768526369761],[0.233771433436727,50.8761139405302],[0.232982493265759,50.8748950764912],[0.232145101578077,50.8745963116041],[0.232457751393552,50.8741173010966],[0.231688073597358,50.8735698881128],[0.231725307181068,50.8732184270935],[0.230946275650589,50.8733358220719],[0.229891262407649,50.8729701703617],[0.229150317505188,50.8712656453437],[0.228076011470323,50.8707644879559],[0.227158546464553,50.8714655161639],[0.224730706621422,50.8719389989445],[0.224509002726637,50.8723579018603],[0.222600502440902,50.8730849726101],[0.221804483095934,50.8737719568424],[0.220727593373479,50.8762648671916],[0.218995087438909,50.8765712449377],[0.218427254905432,50.8761080210442],[0.216991337805822,50.8767343039082],[0.216483122072483,50.8774058927484],[0.218055993139356,50.8783176652523],[0.217306251705662,50.8788742637837],[0.216154107329619,50.8785912539331],[0.216682444864439,50.8792989023066],[0.214268380221175,50.879715347917],[0.214858411313512,50.8805576008015],[0.207612525856758,50.8820070697882],[0.207447268956414,50.8814868156854],[0.201896668927783,50.8819518377783],[0.203347108813381,50.8838073323697],[0.205151293654971,50.8872242763343],[0.206680968272735,50.8869453362235],[0.206872614638914,50.8874804425046],[0.209350693314658,50.8874334686615],[0.208616462831326,50.8878727732688],[0.207650322949433,50.8898130317835],[0.211955821683183,50.8902786075082],[0.211143623923138,50.8921916040833],[0.211580078358873,50.8937143528943],[0.211252949109527,50.894739910408],[0.212443477218875,50.8943609242918],[0.213675263860827,50.8947354551936],[0.214393553873061,50.894618400855],[0.214268562838774,50.8965103739266],[0.216639010084943,50.8972235600422],[0.215959222852465,50.8986136913817],[0.215412806013458,50.8988083470173],[0.215605447612437,50.899481025619],[0.214821367302816,50.8996218196023],[0.214895603562671,50.8999873586243],[0.212754260947464,50.9013311762662],[0.21505104963785,50.9028101757814],[0.217421595595465,50.9032459768347],[0.219849825943784,50.902055809352],[0.219923065990877,50.9017117518576],[0.221529116712389,50.901272247217],[0.224032351887425,50.898198155216],[0.226197617466624,50.8976847017932],[0.22597289008121,50.8990470563219],[0.226515345748901,50.9000134401417],[0.229420055189219,50.9028220829345],[0.229939379937666,50.9041770670135],[0.231185530339874,50.9049952567587],[0.231554457369892,50.9071210016842],[0.232991571566549,50.9081433685667],[0.234408672795661,50.910436659126],[0.237444856941168,50.9124149747992],[0.238832728994271,50.9145453546112],[0.241308131529298,50.9163822395747],[0.242410195387956,50.9165716202189],[0.244350105311058,50.917824864243],[0.245660102735272,50.917042300272],[0.247073423055381,50.9169154785142],[0.248541603188429,50.9185753859052],[0.253479964119352,50.9202501833934],[0.258140883402844,50.9189765068241],[0.258971185808557,50.9182005003757],[0.259056070226323,50.91736869389],[0.261809018999116,50.915047156186],[0.263575886542298,50.9170373862154],[0.265244425710744,50.9182317917962],[0.265568665977749,50.9180528669865],[0.268933531822831,50.9198933081853],[0.270125549412748,50.9193889201588],[0.270820275713922,50.9195139641143],[0.271043780126157,50.9189312963934],[0.271586886892122,50.9187471073384],[0.274119662358718,50.9188381494991],[0.274654234939098,50.9182170453226],[0.277341981385122,50.9174604440432],[0.278453213619356,50.914925871648],[0.279230477291057,50.9142082079396]]]},"properties":{"PARNCP25CD":"E04003848","PARNCP25NM":"Hellingly","LAD25NM":"Wealden"}}]}